NORAD_CAT_ID,OBJECT_NAME,OBJECT_TYPE,EPOCH,MEAN_MOTION,ECCENTRICITY,INCLINATION,RA_OF_ASC_NODE,ARG_OF_PERICENTER,MEAN_ANOMALY,BSTAR,MEAN_MOTION_DOT,MEAN_MOTION_DDOT,TLE_LINE0,TLE_LINE1,TLE_LINE2,SEMIMAJOR_AXIS,PERIOD,APOGEE,PERIGEE,DECAYED
53886.0,STARLINK-5028,PAYLOAD,2024-02-09 11:04:20,15.08838517,0.0001471,53.2166,132.6643,76.9172,283.1985,7.9452e-05,9.77e-06,0.0,0 STARLINK-5028,1 53886U 22119A   24040.46135238  .00000977  00000-0  79452-4 0  9991,2 53886  53.2166 132.6643 0001471  76.9172 283.1985 15.08838517 76640,6917.885,95.438,540.768,538.732,0.0
53886.0,STARLINK-5028,PAYLOAD,2024-02-09 12:39:43,15.08841419,0.0001497,53.2164,132.3666,79.8439,280.2721,9.6605e-05,1.25e-05,0.0,0 STARLINK-5028,1 53886U 22119A   24040.52759013  .00001250  00000-0  96605-4 0  9995,2 53886  53.2164 132.3666 0001497  79.8439 280.2721 15.08841419 77075,6917.876,95.437,540.777,538.705,0.0
53886.0,STARLINK-5028,PAYLOAD,2024-02-09 15:50:29,15.0884867,0.0001595,53.2169,131.7682,103.9307,256.1862,6.9231e-05,8.14e-06,0.0,0 STARLINK-5028,1 53886U 22119A   24040.66006471  .00000814  00000-0  69231-4 0  9993,2 53886  53.2169 131.7682 0001595 103.9307 256.1862 15.08848670 76672,6917.854,95.437,540.822,538.615,0.0
53886.0,STARLINK-5028,PAYLOAD,2024-02-10 10:55:07,15.0884425,0.0002092,53.2166,128.1913,132.0844,228.0326,-5.4269e-05,-1.152e-05,0.0,0 STARLINK-5028,1 53886U 22119A   24041.45495256 -.00001152  00000-0 -54269-4 0  9997,2 53886  53.2166 128.1913 0002092 132.0844 228.0326 15.08844250 76794,6917.867,95.437,541.18,538.285,0.0
53886.0,STARLINK-5028,PAYLOAD,2024-02-10 12:30:31,15.08838161,0.0001565,53.2174,127.9031,106.2994,253.8171,-1.383e-05,-5.08e-06,0.0,0 STARLINK-5028,1 53886U 22119A   24041.52119726 -.00000508  00000-0 -13830-4 0  9993,2 53886  53.2174 127.9031 0001565 106.2994 253.8171 15.08838161 77221,6917.886,95.438,540.834,538.668,0.0
53886.0,STARLINK-5028,PAYLOAD,2024-02-11 10:45:54,15.08847724,0.0001445,53.2166,123.742,100.7622,259.3533,9.936e-05,1.294e-05,0.0,0 STARLINK-5028,1 53886U 22119A   24042.44855091  .00001294  00000-0  99360-4 0  9990,2 53886  53.2166 123.7420 0001445 100.7622 259.3533 15.08847724 77365,6917.857,95.437,540.721,538.722,0.0
53886.0,STARLINK-5028,PAYLOAD,2024-02-12 04:15:09,15.0884223,0.0001438,53.2164,120.4711,91.5739,268.5418,0.00024583,3.627e-05,0.0,0 STARLINK-5028,1 53886U 22119A   24043.17719099  .00003627  00000-0  24583-3 0  9994,2 53886  53.2164 120.4711 0001438  91.5739 268.5418 15.08842230 77055,6917.874,95.437,540.733,538.744,0.0
53886.0,STARLINK-5028,PAYLOAD,2024-02-12 10:36:41,15.08849584,0.000141,53.2159,119.2823,93.945,266.1703,0.00024306,3.583e-05,0.0,0 STARLINK-5028,1 53886U 22119A   24043.44214922  .00003583  00000-0  24306-3 0  9993,2 53886  53.2159 119.2823 0001410  93.9450 266.1703 15.08849584 77516,6917.851,95.437,540.692,538.741,0.0
53886.0,STARLINK-5028,PAYLOAD,2024-02-12 15:22:50,15.08857929,0.0002095,53.2167,118.3872,126.528,233.5906,0.00028533,4.258e-05,0.0,0 STARLINK-5028,1 53886U 22119A   24043.64086147  .00004258  00000-0  28533-3 0  9997,2 53886  53.2167 118.3872 0002095 126.5280 233.5906 15.08857929 77125,6917.826,95.436,541.14,538.241,0.0
53886.0,STARLINK-5028,PAYLOAD,2024-02-13 12:02:52,15.08830523,0.000163,53.216,114.5231,87.0155,273.1024,-0.00015543,-2.76e-05,0.0,0 STARLINK-5028,1 53886U 22119A   24044.50199927 -.00002760  00000-0 -15543-3 0  9999,2 53886  53.2160 114.5231 0001630  87.0155 273.1024 15.08830523 77257,6917.909,95.438,540.902,538.647,0.0
53886.0,STARLINK-5028,PAYLOAD,2024-02-13 13:38:15,15.08831994,0.0001676,53.2162,114.2252,91.627,268.4914,-0.00012308,-2.246e-05,0.0,0 STARLINK-5028,1 53886U 22119A   24044.56823886 -.00002246  00000-0 -12308-3 0  9998,2 53886  53.2162 114.2252 0001676  91.6270 268.4914 15.08831994 77683,6917.905,95.438,540.929,538.61,0.0
53886.0,STARLINK-5028,PAYLOAD,2024-02-13 21:35:11,15.0883592,0.0001538,53.2155,112.737,96.7878,263.3289,-8.0038e-06,-4.15e-06,0.0,0 STARLINK-5028,1 53886U 22119A   24044.89943785 -.00000415  00000-0 -80038-5 0  9998,2 53886  53.2155 112.7370 0001538  96.7878 263.3289 15.08835920 77734,6917.893,95.438,540.822,538.694,0.0
53886.0,STARLINK-5028,PAYLOAD,2024-02-14 11:53:39,15.08853989,0.0001589,53.215,110.059,90.5247,269.5927,0.00045494,6.963e-05,0.0,0 STARLINK-5028,1 53886U 22119A   24045.49559251  .00006963  00000-0  45494-3 0  9993,2 53886  53.2150 110.0590 0001589  90.5247 269.5927 15.08853989 77408,6917.838,95.437,540.802,538.603,0.0
53886.0,STARLINK-5028,PAYLOAD,2024-02-14 13:29:02,15.08855907,0.0001673,53.215,109.7594,81.8609,278.2573,0.00088603,0.00013847,0.0,0 STARLINK-5028,1 53886U 22119A   24045.56183493  .00013847  00000-0  88603-3 0  9990,2 53886  53.2150 109.7594 0001673  81.8609 278.2573 15.08855907 77839,6917.832,95.437,540.854,538.539,0.0
53886.0,STARLINK-5028,PAYLOAD,2024-02-14 21:25:58,15.08841351,0.0001078,53.215,108.2748,102.3944,257.7169,0.00062328,9.646e-05,0.0,0 STARLINK-5028,1 53886U 22119A   24045.89303630  .00009646  00000-0  62328-3 0  9991,2 53886  53.2150 108.2748 0001078 102.3944 257.7169 15.08841351 77880,6917.876,95.437,540.487,538.996,0.0
53886.0,STARLINK-5028,PAYLOAD,2024-02-15 10:09:03,15.08835304,0.0001879,53.2155,105.8942,95.2,264.9207,1.3371e-05,-7.5e-07,0.0,0 STARLINK-5028,1 53886U 22119A   24046.42296131 -.00000075  00000-0  13371-4 0  9991,2 53886  53.2155 105.8942 0001879  95.2000 264.9207 15.08835304 77543,6917.895,95.438,541.06,538.46,0.0
53886.0,STARLINK-5028,PAYLOAD,2024-02-15 13:19:50,15.08839825,0.0001859,53.2156,105.2982,95.9113,264.2091,0.00019225,2.773e-05,0.0,0 STARLINK-5028,1 53886U 22119A   24046.55544148  .00002773  00000-0  19225-3 0  9998,2 53886  53.2156 105.2982 0001859  95.9113 264.2091 15.08839825 77986,6917.881,95.438,541.032,538.46,0.0
53886.0,STARLINK-5028,PAYLOAD,2024-02-15 21:16:45,15.08836673,0.0001467,53.2143,103.8147,93.5956,266.5203,0.00011175,1.491e-05,0.0,0 STARLINK-5028,1 53886U 22119A   24046.88664279  .00001491  00000-0  11175-3 0  9994,2 53886  53.2143 103.8147 0001467  93.5956 266.5203 15.08836673 78038,6917.891,95.438,540.77,538.741,0.0
53886.0,STARLINK-5028,PAYLOAD,2024-02-16 09:59:51,15.08847187,0.000148,53.2143,101.4376,87.9368,272.1794,0.00058606,9.053e-05,0.0,0 STARLINK-5028,1 53886U 22119A   24047.41656275  .00009053  00000-0  58606-3 0  9993,2 53886  53.2143 101.4376 0001480  87.9368 272.1794 15.08847187 78114,6917.858,95.437,540.747,538.7,0.0
53886.0,STARLINK-5028,PAYLOAD,2024-02-17 03:29:05,15.08846986,0.0001576,53.2166,98.1656,89.642,270.4752,0.00042955,6.556e-05,0.0,0 STARLINK-5028,1 53886U 22119A   24048.14520401  .00006556  00000-0  42955-3 0  9990,2 53886  53.2166  98.1656 0001576  89.6420 270.4752 15.08846986 77802,6917.859,95.437,540.814,538.634,0.0
53886.0,STARLINK-5028,PAYLOAD,2024-02-17 09:50:37,15.08849676,0.0001601,53.2172,96.9751,100.777,259.3403,0.00038749,5.886e-05,0.0,0 STARLINK-5028,1 53886U 22119A   24048.41016145  .00005886  00000-0  38749-3 0  9996,2 53886  53.2172  96.9751 0001601 100.7770 259.3403 15.08849676 78262,6917.851,95.437,540.823,538.608,0.0
53886.0,STARLINK-5028,PAYLOAD,2024-02-18 03:19:52,15.08839111,0.0001736,53.2176,93.7053,99.2116,260.9073,5.3129e-05,5.58e-06,0.0,0 STARLINK-5028,1 53886U 22119A   24049.13880476  .00000558  00000-0  53129-4 0  9993,2 53886  53.2176  93.7053 0001736  99.2116 260.9073 15.08839111 77950,6917.883,95.438,540.949,538.547,0.0
53886.0,STARLINK-5028,PAYLOAD,2024-02-18 09:41:25,15.08844805,0.0001559,53.2156,92.518,91.2918,268.8252,0.00014379,2.001e-05,0.0,0 STARLINK-5028,1 53886U 22119A   24049.40376300  .00002001  00000-0  14379-3 0  9997,2 53886  53.2156  92.5180 0001559  91.2918 268.8252 15.08844805 78415,6917.866,95.437,540.809,538.652,0.0
53886.0,STARLINK-5028,PAYLOAD,2024-02-18 19:13:44,15.0884062,0.0001559,53.2159,90.7348,90.4124,269.7047,1.7395e-07,-2.85e-06,0.0,0 STARLINK-5028,1 53886U 22119A   24049.80120433 -.00000285  00000-0  17395-6 0  9992,2 53886  53.2159  90.7348 0001559  90.4124 269.7047 15.08840620 78473,6917.878,95.438,540.822,538.665,0.0
53886.0,STARLINK-5028,PAYLOAD,2024-02-19 09:32:12,15.0883975,0.0001685,53.2166,88.0583,94.4307,265.6877,6.6474e-05,7.7e-06,0.0,0 STARLINK-5028,1 53886U 22119A   24050.39736571  .00000770  00000-0  66474-4 0  9992,2 53886  53.2166  88.0583 0001685  94.4307 265.6877 15.08839750 78141,6917.881,95.438,540.912,538.58,0.0
53886.0,STARLINK-5028,PAYLOAD,2024-02-19 19:04:31,15.08839245,0.0001689,53.217,86.274,94.439,265.6795,-6.8688e-06,-3.97e-06,0.0,0 STARLINK-5028,1 53886U 22119A   24050.79480555 -.00000397  00000-0 -68688-5 0  9991,2 53886  53.2170  86.2740 0001689  94.4390 265.6795 15.08839245 78628,6917.883,95.438,540.916,538.579,0.0
53886.0,STARLINK-5028,PAYLOAD,2024-02-20 03:01:27,15.0882943,0.0001538,53.2162,84.7865,99.0305,261.0862,3.5446e-05,2.76e-06,0.0,0 STARLINK-5028,1 53886U 22119A   24051.12601549  .00000276  00000-0  35446-4 0  9996,2 53886  53.2162  84.7865 0001538  99.0305 261.0862 15.08829430 78259,6917.913,95.438,540.842,538.714,0.0
53886.0,STARLINK-5028,PAYLOAD,2024-02-20 10:58:23,15.08836913,0.0001508,53.216,83.2985,94.7843,265.3322,7.9339e-05,9.75e-06,0.0,0 STARLINK-5028,1 53886U 22119A   24051.45721075  .00000975  00000-0  79339-4 0  9994,2 53886  53.2160  83.2985 0001508  94.7843 265.3322 15.08836913 78308,6917.89,95.438,540.798,538.712,0.0
53886.0,STARLINK-5028,PAYLOAD,2024-02-20 22:06:05,15.08834441,0.0001511,53.2162,81.2167,91.1637,268.9528,9.4813e-05,1.221e-05,0.0,0 STARLINK-5028,1 53886U 22119A   24051.92089233  .00001221  00000-0  94813-4 0  9998,2 53886  53.2162  81.2167 0001511  91.1637 268.9528 15.08834441 78790,6917.897,95.438,540.808,538.717,0.0
53886.0,STARLINK-5028,PAYLOAD,2024-02-21 09:13:46,15.0884571,0.0001549,53.2161,79.135,90.9301,269.1868,0.00012139,1.645e-05,0.0,0 STARLINK-5028,1 53886U 22119A   24052.38456533  .00001645  00000-0  12139-3 0  9990,2 53886  53.2161  79.1350 0001549  90.9301 269.1868 15.08845710 78448,6917.863,95.437,540.8,538.656,0.0
